[
    {
        "Altitude(m)": 624790.8366022567,
        "Argument of Periapsis(deg)": 0.0,
        "Eccentricity": 0.0,
        "Inclination(deg)": 60.0,
        "Latitude(deg)": -59.147241527227195,
        "Longitude(deg)": -63.96532233655964,
        "Mean Anomaly(deg)": -81.81820000000003,
        "RAAN(deg)": 110.00000000000001,
        "Satellite Name": "Test1 501",
        "Satellite Number": 501,
        "Semi-Major Axis(m)": 6980739.136638005,
        "Time(s)": 0
    },
    {
        "Altitude(m)": 624737.4915041741,
        "Argument of Periapsis(deg)": 0.00010418945913296404,
        "Eccentricity": 0.0,
        "Inclination(deg)": 60.0,
        "Latitude(deg)": -58.99469581116489,
        "Longitude(deg)": -62.84581666546356,
        "Mean Anomaly(deg)": -81.19809385453814,
        "RAAN(deg)": 109.99957995086025,
        "Satellite Name": "Test1 501",
        "Satellite Number": 501,
        "Semi-Major Axis(m)": 6980739.136638005,
        "Time(s)": 10
    }
]